{
  "province_id": 2
  "data": [
    {
      "phone_area_code": "74",
      "citymun_id": 18,
      "name": "Bangued",
      "zip_code": "2800"
    },
    {
      "phone_area_code": "74",
      "citymun_id": 19,
      "name": "Boliney",
      "zip_code": "2815"
    },
    {
      "phone_area_code": "74",
      "citymun_id": 20,
      "name": "Bucay",
      "zip_code": "2805"
    },
    {
      "phone_area_code": "74",
      "citymun_id": 21,
      "name": "Bucloc",
      "zip_code": "2817"
    },
    {
      "phone_area_code": "74",
      "citymun_id": 22,
      "name": "Daguioman",
      "zip_code": "2816"
    },
    {
      "phone_area_code": "74",
      "citymun_id": 23,
      "name": "Danglas",
      "zip_code": "2825"
    },
    {
      "phone_area_code": "74",
      "citymun_id": 24,
      "name": "Dolores",
      "zip_code": "2801"
    },
    {
      "phone_area_code": "74",
      "citymun_id": 26,
      "name": "Lacub",
      "zip_code": "2821"
    },
    {
      "phone_area_code": "74",
      "citymun_id": 27,
      "name": "Lagangilang",
      "zip_code": "2802"
    },
    {
      "phone_area_code": "74",
      "citymun_id": 28,
      "name": "Lagayan",
      "zip_code": "2824"
    },
    {
      "phone_area_code": "74",
      "citymun_id": 29,
      "name": "Langiden",
      "zip_code": "2807"
    },
    {
      "phone_area_code": "74",
      "citymun_id": 25,
      "name": "La Paz",
      "zip_code": "2826"
    },
    {
      "phone_area_code": "74",
      "citymun_id": 30,
      "name": "Licuan-Baay",
      "zip_code": "2819"
    },
    {
      "phone_area_code": "74",
      "citymun_id": 31,
      "name": "Luba",
      "zip_code": "2813"
    },
    {
      "phone_area_code": "74",
      "citymun_id": 32,
      "name": "Malibcong",
      "zip_code": "2820"
    },
    {
      "phone_area_code": "74",
      "citymun_id": 33,
      "name": "Manabo",
      "zip_code": "2810"
    },
    {
      "phone_area_code": "74",
      "citymun_id": 34,
      "name": "Pe√±arrubia",
      "zip_code": "2804"
    },
    {
      "phone_area_code": "74",
      "citymun_id": 35,
      "name": "Pidigan",
      "zip_code": "2806"
    },
    {
      "phone_area_code": "74",
      "citymun_id": 36,
      "name": "Pilar",
      "zip_code": "2812"
    },
    {
      "phone_area_code": "74",
      "citymun_id": 37,
      "name": "Sallapadan",
      "zip_code": "2818"
    },
    {
      "phone_area_code": "74",
      "citymun_id": 38,
      "name": "San Isidro",
      "zip_code": "2809"
    },
    {
      "phone_area_code": "74",
      "citymun_id": 39,
      "name": "San Juan",
      "zip_code": "2823"
    },
    {
      "phone_area_code": "74",
      "citymun_id": 40,
      "name": "San Quintin",
      "zip_code": "2808"
    },
    {
      "phone_area_code": "74",
      "citymun_id": 41,
      "name": "Tayum",
      "zip_code": "2803"
    },
    {
      "phone_area_code": "74",
      "citymun_id": 42,
      "name": "Tineg",
      "zip_code": "2822"
    },
    {
      "phone_area_code": "74",
      "citymun_id": 43,
      "name": "Tubo",
      "zip_code": "2814"
    },
    {
      "phone_area_code": "74",
      "citymun_id": 44,
      "name": "Villaviciosa",
      "zip_code": "2811"
    }
  ]
}
